{
    "links": {
        "self": "http://www.neowsapp.com/rest/v1/neo/54017528?api_key=iIulBulltgU6a56xZRHN4H3l9WmuAYTsLGpBGhQ2"
    },
    "id": "54017528",
    "neo_reference_id": "54017528",
    "name": "(2020 LV1)",
    "designation": "2020 LV1",
    "nasa_jpl_url": "http://ssd.jpl.nasa.gov/sbdb.cgi?sstr=54017528",
    "absolute_magnitude_h": 22.042,
    "estimated_diameter": {
        "kilometers": {
            "estimated_diameter_min": 0.1037898721,
            "estimated_diameter_max": 0.2320812093
        },
        "meters": {
            "estimated_diameter_min": 103.7898720606,
            "estimated_diameter_max": 232.0812093034
        },
        "miles": {
            "estimated_diameter_min": 0.0644920166,
            "estimated_diameter_max": 0.1442085331
        },
        "feet": {
            "estimated_diameter_min": 340.5179638511,
            "estimated_diameter_max": 761.421314731
        }
    },
    "is_potentially_hazardous_asteroid": false,
    "close_approach_data": [
        {
            "close_approach_date": "2020-06-11",
            "close_approach_date_full": "2020-Jun-11 04:53",
            "epoch_date_close_approach": 1591851180000,
            "relative_velocity": {
                "kilometers_per_second": "19.5907234056",
                "kilometers_per_hour": "70526.6042603087",
                "miles_per_hour": "43822.489186079"
            },
            "miss_distance": {
                "astronomical": "0.0714656626",
                "lunar": "27.8001427514",
                "kilometers": "10691110.903098662",
                "miles": "6643148.2683070556"
            },
            "orbiting_body": "Earth"
        }
    ],
    "orbital_data": {
        "orbit_id": "2",
        "orbit_determination_date": "2020-06-23 06:12:50",
        "first_observation_date": "2020-06-15",
        "last_observation_date": "2020-06-22",
        "data_arc_in_days": 7,
        "observations_used": 20,
        "orbit_uncertainty": "9",
        "minimum_orbit_intersection": ".0135175",
        "jupiter_tisserand_invariant": "3.054",
        "epoch_osculation": "2459019.5",
        "eccentricity": ".6696362652859255",
        "semi_major_axis": "2.433422597720132",
        "inclination": "25.69287329111412",
        "ascending_node_longitude": "85.96537012814741",
        "orbital_period": "1386.515509748538",
        "perihelion_distance": ".8039145775204478",
        "perihelion_argument": "116.2288990657365",
        "aphelion_distance": "4.062930617919815",
        "perihelion_time": "2458970.136825419749",
        "mean_anomaly": "12.81683668444019",
        "mean_motion": ".2596436876968585",
        "equinox": "J2000",
        "orbit_class": {
            "orbit_class_type": "APO",
            "orbit_class_description": "Near-Earth asteroid orbits which cross the Earth’s orbit similar to that of 1862 Apollo",
            "orbit_class_range": "a (semi-major axis) > 1.0 AU; q (perihelion) < 1.017 AU"
        }
    },
    "is_sentry_object": false
}